IRIDIUM 136             
1 42962U 17061H   24021.56559301  .00000280  00000+0  92762-4 0  9990
2 42962  86.3955  32.0004 0002410  86.7408 273.4063 14.34218153329045
